SAUDISAT 1C (SO-50)     
1 27607U 02058C   26185.68749616  .00001404  00000+0  18212-3 0  9991
2 27607  64.5520  74.8394 0074817 259.1898 100.0781 14.83086074267058
SAUDISAT 2              
1 28371U 04025F   26186.23156407  .00000359  00000+0  91113-4 0  9998
2 28371  98.5513 186.6801 0023586 239.9733 119.9124 14.56694803168372
SAUDISAT 3              
1 31118U 07012B   26185.80320751  .00000427  00000+0  77061-4 0  9999
2 31118  98.1462 136.2161 0014887 166.2917 193.8697 14.71436735 30339
PISAT                   
1 41784U 16059B   26185.99014120  .00001339  00000+0  23488-3 0  9996
2 41784  97.8183 185.6782 0029817 146.1425 214.1693 14.69017629522357
FLYING LAPTOP           
1 42831U 17042G   26186.31571728  .00005315  00000+0  41620-3 0  9998
2 42831  97.4777 341.1600 0019973  63.9242 296.4036 15.01267652489175
SALSAT                  
1 46495U 20068K   26185.73936093  .00013612  00000+0  46989-3 0  9997
2 46495  97.8855 189.8756 0008222 233.3566 126.6918 15.30063013318049
